[
  {
    "OBJECT_NAME": "STARLINK-31466",
    "OBJECT_ID": "24064Y",
    "EPOCH": "2025-11-11T03:46:07.963968",
    "MEAN_MOTION": 15.27578492,
    "ECCENTRICITY": 0.0001305,
    "INCLINATION": 43.0012,
    "RA_OF_ASC_NODE": 5.9369,
    "ARG_OF_PERICENTER": 266.8855,
    "MEAN_ANOMALY": 93.1847,
    "EPHEMERIS_TYPE": 0,
    "CLASSIFICATION_TYPE": "U",
    "NORAD_CAT_ID": 59420,
    "ELEMENT_SET_NO": 999,
    "REV_AT_EPOCH": 9109,
    "BSTAR": 6.6641e-05,
    "MEAN_MOTION_DOT": 1.572e-05,
    "MEAN_MOTION_DDOT": 0.0,
    "TLE_LINE1": "1 59420U 24064Y   25315.15703662  .00001572  00000+0  66641-4 0  9993",
    "TLE_LINE2": "2 59420  43.0012   5.9369 0001305 266.8855  93.1847 15.27578492 91094",
    "COMMENT": "Grouped by shell and plane from TLE"
  },
  {
    "OBJECT_NAME": "STARLINK-32091",
    "OBJECT_ID": "24086C",
    "EPOCH": "2025-11-11T04:12:30.406752",
    "MEAN_MOTION": 15.27578223,
    "ECCENTRICITY": 0.0001452,
    "INCLINATION": 43.0017,
    "RA_OF_ASC_NODE": 1.7043,
    "ARG_OF_PERICENTER": 277.0249,
    "MEAN_ANOMALY": 83.0438,
    "EPHEMERIS_TYPE": 0,
    "CLASSIFICATION_TYPE": "U",
    "NORAD_CAT_ID": 59684,
    "ELEMENT_SET_NO": 999,
    "REV_AT_EPOCH": 8608,
    "BSTAR": 6.734400000000001e-05,
    "MEAN_MOTION_DOT": 1.591e-05,
    "MEAN_MOTION_DDOT": 0.0,
    "TLE_LINE1": "1 59684U 24086C   25315.17535193  .00001591  00000+0  67344-4 0  9995",
    "TLE_LINE2": "2 59684  43.0017   1.7043 0001452 277.0249  83.0438 15.27578223 86087",
    "COMMENT": "Grouped by shell and plane from TLE"
  },
  {
    "OBJECT_NAME": "STARLINK-32085",
    "OBJECT_ID": "24086D",
    "EPOCH": "2025-11-11T05:17:43.021248",
    "MEAN_MOTION": 15.27585793,
    "ECCENTRICITY": 0.0001327,
    "INCLINATION": 43.0014,
    "RA_OF_ASC_NODE": 8.9644,
    "ARG_OF_PERICENTER": 233.7171,
    "MEAN_ANOMALY": 126.3558,
    "EPHEMERIS_TYPE": 0,
    "CLASSIFICATION_TYPE": "U",
    "NORAD_CAT_ID": 59685,
    "ELEMENT_SET_NO": 999,
    "REV_AT_EPOCH": 8599,
    "BSTAR": 0.0,
    "MEAN_MOTION_DOT": -8.071e-05,
    "MEAN_MOTION_DDOT": 0.0,
    "TLE_LINE1": "1 59685U 24086D   25315.22063682 -.00008071  00000+0 -28403-3 0  9995",
    "TLE_LINE2": "2 59685  43.0014   8.9644 0001327 233.7171 126.3558 15.27585793 85998",
    "COMMENT": "Grouped by shell and plane from TLE"
  },
  {
    "OBJECT_NAME": "STARLINK-32089",
    "OBJECT_ID": "24086F",
    "EPOCH": "2025-11-11T04:55:36.490080",
    "MEAN_MOTION": 15.27419313,
    "ECCENTRICITY": 0.0001655,
    "INCLINATION": 43.006,
    "RA_OF_ASC_NODE": 8.8511,
    "ARG_OF_PERICENTER": 199.2716,
    "MEAN_ANOMALY": 160.8074,
    "EPHEMERIS_TYPE": 0,
    "CLASSIFICATION_TYPE": "U",
    "NORAD_CAT_ID": 59687,
    "ELEMENT_SET_NO": 999,
    "REV_AT_EPOCH": 8599,
    "BSTAR": 0.0016634,
    "MEAN_MOTION_DOT": 0.00045571,
    "MEAN_MOTION_DDOT": 0.0,
    "TLE_LINE1": "1 59687U 24086F   25315.20528345  .00045571  00000+0  16634-2 0  9993",
    "TLE_LINE2": "2 59687  43.0060   8.8511 0001655 199.2716 160.8074 15.27419313 85998",
    "COMMENT": "Grouped by shell and plane from TLE"
  },
  {
    "OBJECT_NAME": "STARLINK-32105",
    "OBJECT_ID": "24086H",
    "EPOCH": "2025-11-11T04:46:16.353696",
    "MEAN_MOTION": 15.27575953,
    "ECCENTRICITY": 5.17e-05,
    "INCLINATION": 43.0022,
    "RA_OF_ASC_NODE": 8.8004,
    "ARG_OF_PERICENTER": 277.6567,
    "MEAN_ANOMALY": 82.4226,
    "EPHEMERIS_TYPE": 0,
    "CLASSIFICATION_TYPE": "U",
    "NORAD_CAT_ID": 59689,
    "ELEMENT_SET_NO": 999,
    "REV_AT_EPOCH": 8599,
    "BSTAR": 2.2624000000000002e-05,
    "MEAN_MOTION_DOT": 3.61e-06,
    "MEAN_MOTION_DDOT": 0.0,
    "TLE_LINE1": "1 59689U 24086H   25315.19880039  .00000361  00000+0  22624-4 0  9990",
    "TLE_LINE2": "2 59689  43.0022   8.8004 0000517 277.6567  82.4226 15.27575953 85997",
    "COMMENT": "Grouped by shell and plane from TLE"
  },
  {
    "OBJECT_NAME": "STARLINK-32106",
    "OBJECT_ID": "24086J",
    "EPOCH": "2025-11-11T03:55:51.426624",
    "MEAN_MOTION": 15.27570833,
    "ECCENTRICITY": 0.0001444,
    "INCLINATION": 43.0009,
    "RA_OF_ASC_NODE": 1.6193,
    "ARG_OF_PERICENTER": 282.6669,
    "MEAN_ANOMALY": 77.4021,
    "EPHEMERIS_TYPE": 0,
    "CLASSIFICATION_TYPE": "U",
    "NORAD_CAT_ID": 59690,
    "ELEMENT_SET_NO": 999,
    "REV_AT_EPOCH": 8607,
    "BSTAR": 0.000118,
    "MEAN_MOTION_DOT": 2.986e-05,
    "MEAN_MOTION_DDOT": 0.0,
    "TLE_LINE1": "1 59690U 24086J   25315.16378966  .00002986  00000+0  11800-3 0  9998",
    "TLE_LINE2": "2 59690  43.0009   1.6193 0001444 282.6669  77.4021 15.27570833 86072",
    "COMMENT": "Grouped by shell and plane from TLE"
  },
  {
    "OBJECT_NAME": "STARLINK-32088",
    "OBJECT_ID": "24086M",
    "EPOCH": "2025-11-11T04:06:57.526560",
    "MEAN_MOTION": 15.27556358,
    "ECCENTRICITY": 0.0003171,
    "INCLINATION": 43.0051,
    "RA_OF_ASC_NODE": 1.674,
    "ARG_OF_PERICENTER": 269.3044,
    "MEAN_ANOMALY": 90.7445,
    "EPHEMERIS_TYPE": 0,
    "CLASSIFICATION_TYPE": "U",
    "NORAD_CAT_ID": 59693,
    "ELEMENT_SET_NO": 999,
    "REV_AT_EPOCH": 8607,
    "BSTAR": 0.0003686,
    "MEAN_MOTION_DOT": 9.888e-05,
    "MEAN_MOTION_DDOT": 0.0,
    "TLE_LINE1": "1 59693U 24086M   25315.17149915  .00009888  00000+0  36860-3 0  9993",
    "TLE_LINE2": "2 59693  43.0051   1.6740 0003171 269.3044  90.7445 15.27556358 86072",
    "COMMENT": "Grouped by shell and plane from TLE"
  },
  {
    "OBJECT_NAME": "STARLINK-32107",
    "OBJECT_ID": "24086N",
    "EPOCH": "2025-11-11T05:43:37.703712",
    "MEAN_MOTION": 15.27571433,
    "ECCENTRICITY": 0.0002808,
    "INCLINATION": 43.0011,
    "RA_OF_ASC_NODE": 9.0982,
    "ARG_OF_PERICENTER": 289.0336,
    "MEAN_ANOMALY": 71.0211,
    "EPHEMERIS_TYPE": 0,
    "CLASSIFICATION_TYPE": "U",
    "NORAD_CAT_ID": 59694,
    "ELEMENT_SET_NO": 999,
    "REV_AT_EPOCH": 8599,
    "BSTAR": 9.795300000000001e-06,
    "MEAN_MOTION_DOT": 7e-08,
    "MEAN_MOTION_DDOT": 0.0,
    "TLE_LINE1": "1 59694U 24086N   25315.23863083  .00000007  00000+0  97953-5 0  9996",
    "TLE_LINE2": "2 59694  43.0011   9.0982 0002808 289.0336  71.0211 15.27571433 85992",
    "COMMENT": "Grouped by shell and plane from TLE"
  },
  {
    "OBJECT_NAME": "STARLINK-32104",
    "OBJECT_ID": "24086P",
    "EPOCH": "2025-11-11T04:08:17.560608",
    "MEAN_MOTION": 15.27586969,
    "ECCENTRICITY": 0.0001367,
    "INCLINATION": 43.0018,
    "RA_OF_ASC_NODE": 5.9266,
    "ARG_OF_PERICENTER": 267.9746,
    "MEAN_ANOMALY": 92.095,
    "EPHEMERIS_TYPE": 0,
    "CLASSIFICATION_TYPE": "U",
    "NORAD_CAT_ID": 59695,
    "ELEMENT_SET_NO": 999,
    "REV_AT_EPOCH": 8602,
    "BSTAR": 0.0,
    "MEAN_MOTION_DOT": -6.14e-06,
    "MEAN_MOTION_DDOT": 0.0,
    "TLE_LINE1": "1 59695U 24086P   25315.17242547 -.00000614  00000+0 -12784-4 0  9990",
    "TLE_LINE2": "2 59695  43.0018   5.9266 0001367 267.9746  92.0950 15.27586969 86027",
    "COMMENT": "Grouped by shell and plane from TLE"
  },
  {
    "OBJECT_NAME": "STARLINK-32094",
    "OBJECT_ID": "24086Q",
    "EPOCH": "2025-11-11T04:15:00.575136",
    "MEAN_MOTION": 15.27593263,
    "ECCENTRICITY": 8.14e-05,
    "INCLINATION": 42.9956,
    "RA_OF_ASC_NODE": 9.4943,
    "ARG_OF_PERICENTER": 290.4829,
    "MEAN_ANOMALY": 69.5935,
    "EPHEMERIS_TYPE": 0,
    "CLASSIFICATION_TYPE": "U",
    "NORAD_CAT_ID": 59696,
    "ELEMENT_SET_NO": 999,
    "REV_AT_EPOCH": 8598,
    "BSTAR": 0.0,
    "MEAN_MOTION_DOT": -5.679e-05,
    "MEAN_MOTION_DDOT": 0.0,
    "TLE_LINE1": "1 59696U 24086Q   25315.17708999 -.00005679  00000+0 -19693-3 0  9990",
    "TLE_LINE2": "2 59696  42.9956   9.4943 0000814 290.4829  69.5935 15.27593263 85988",
    "COMMENT": "Grouped by shell and plane from TLE"
  },
  {
    "OBJECT_NAME": "STARLINK-32099",
    "OBJECT_ID": "24086R",
    "EPOCH": "2025-11-11T04:51:49.169088",
    "MEAN_MOTION": 15.2758283,
    "ECCENTRICITY": 0.0001662,
    "INCLINATION": 43.0042,
    "RA_OF_ASC_NODE": 8.8298,
    "ARG_OF_PERICENTER": 269.9043,
    "MEAN_ANOMALY": 90.1619,
    "EPHEMERIS_TYPE": 0,
    "CLASSIFICATION_TYPE": "U",
    "NORAD_CAT_ID": 59697,
    "ELEMENT_SET_NO": 999,
    "REV_AT_EPOCH": 8599,
    "BSTAR": 0.0,
    "MEAN_MOTION_DOT": -6.29e-06,
    "MEAN_MOTION_DDOT": 0.0,
    "TLE_LINE1": "1 59697U 24086R   25315.20265242 -.00000629  00000+0 -13325-4 0  9991",
    "TLE_LINE2": "2 59697  43.0042   8.8298 0001662 269.9043  90.1619 15.27582830 85992",
    "COMMENT": "Grouped by shell and plane from TLE"
  },
  {
    "OBJECT_NAME": "STARLINK-32096",
    "OBJECT_ID": "24086S",
    "EPOCH": "2025-11-11T03:38:00.921984",
    "MEAN_MOTION": 15.27583698,
    "ECCENTRICITY": 0.0001555,
    "INCLINATION": 43.0041,
    "RA_OF_ASC_NODE": 9.3062,
    "ARG_OF_PERICENTER": 282.6663,
    "MEAN_ANOMALY": 77.4014,
    "EPHEMERIS_TYPE": 0,
    "CLASSIFICATION_TYPE": "U",
    "NORAD_CAT_ID": 59698,
    "ELEMENT_SET_NO": 999,
    "REV_AT_EPOCH": 8598,
    "BSTAR": 3.9280000000000003e-05,
    "MEAN_MOTION_DOT": 8.19e-06,
    "MEAN_MOTION_DDOT": 0.0,
    "TLE_LINE1": "1 59698U 24086S   25315.15139956  .00000819  00000+0  39280-4 0  9995",
    "TLE_LINE2": "2 59698  43.0041   9.3062 0001555 282.6663  77.4014 15.27583698 85987",
    "COMMENT": "Grouped by shell and plane from TLE"
  },
  {
    "OBJECT_NAME": "STARLINK-32102",
    "OBJECT_ID": "24086T",
    "EPOCH": "2025-11-11T05:01:02.467776",
    "MEAN_MOTION": 15.27616106,
    "ECCENTRICITY": 8.56e-05,
    "INCLINATION": 43.0025,
    "RA_OF_ASC_NODE": 8.8771,
    "ARG_OF_PERICENTER": 268.6835,
    "MEAN_ANOMALY": 91.3918,
    "EPHEMERIS_TYPE": 0,
    "CLASSIFICATION_TYPE": "U",
    "NORAD_CAT_ID": 59699,
    "ELEMENT_SET_NO": 999,
    "REV_AT_EPOCH": 8599,
    "BSTAR": 0.0,
    "MEAN_MOTION_DOT": -0.00015038,
    "MEAN_MOTION_DDOT": 0.0,
    "TLE_LINE1": "1 59699U 24086T   25315.20905634 -.00015038  00000+0 -53746-3 0  9999",
    "TLE_LINE2": "2 59699  43.0025   8.8771 0000856 268.6835  91.3918 15.27616106 85999",
    "COMMENT": "Grouped by shell and plane from TLE"
  }
]